OBJECT_NAME,OBJECT_ID,EPOCH,MEAN_MOTION,ECCENTRICITY,INCLINATION,RA_OF_ASC_NODE,ARG_OF_PERICENTER,MEAN_ANOMALY,EPHEMERIS_TYPE,CLASSIFICATION_TYPE,NORAD_CAT_ID,ELEMENT_SET_NO,REV_AT_EPOCH,BSTAR,MEAN_MOTION_DOT,MEAN_MOTION_DDOT
POLYITAN-1,2014-033AJ,2026-07-20T01:30:08.559648,15.34324541,.00074773,98.0936,230.4610,49.6806,310.5087,0,U,40042,999,65863,.31454474E-3,.10374E-3,0
TIGRISAT,2014-033AK,2026-07-20T04:41:01.192416,14.85257761,.00482244,97.7872,350.4597,327.6805,32.1457,0,U,40043,999,65052,.99037235E-4,.811E-5,0
AEROCUBE 6A,2014-033AM,2026-07-19T22:46:38.682048,14.98375370,.00361088,97.7268,7.5592,264.4849,95.2254,0,U,40045,999,65152,.29632068E-3,.3519E-4,0
AEROCUBE 6B,2014-033AN,2026-07-19T23:40:12.684288,14.99823327,.00381748,97.7208,7.4511,253.1889,106.5145,0,U,40046,999,65167,.22088373E-3,.2713E-4,0
CANX-4,2014-034C,2026-07-20T02:46:56.603424,14.81315692,.00113694,98.3076,77.6314,265.1141,94.8773,0,U,40055,999,64940,.55719937E-4,.378E-5,0
CANX-5,2014-034D,2026-07-20T02:44:07.984320,14.81333052,.0011378,98.3079,77.6749,265.3825,94.6087,0,U,40056,999,64021,.56070303E-4,.381E-5,0
UKUBE-1,2014-037F,2026-07-19T22:53:38.791680,15.13993166,.00031713,98.4250,207.6817,79.9998,280.1589,0,U,40074,999,65351,.26230161E-3,.4682E-4,0
BRITE-PL2 (HEWELIUSZ),2014-049B,2026-07-20T05:51:14.700096,14.94694704,.00138385,97.9121,313.5052,5.7697,354.3679,0,U,40119,999,64638,.91100112E-4,.93E-5,0
AEROCUBE 5C,2015-058B,2026-07-20T07:02:26.965824,14.91597120,.01327141,64.7653,159.5853,50.5093,310.7667,0,U,40965,999,37059,.18521209E-3,.2026E-4,0
AEROCUBE 7,2015-058C,2026-07-20T03:03:37.803168,14.95942376,.01224004,64.7617,141.6214,48.8705,312.2896,0,U,40966,999,37088,.23041446E-3,.2825E-4,0
FOX-1A (AO-85),2015-058D,2026-07-20T03:36:45.428256,14.91107360,.0132767,64.7727,176.5310,43.9361,317.2215,0,U,40967,999,11848,.17611163E-3,.1891E-4,0
SINOD-D 1,2015-058E,2026-07-20T02:26:16.801440,14.96117831,.01214679,64.7742,155.8196,40.2971,320.7067,0,U,40968,999,12158,.25485838E-3,.3154E-4,0
SNAP-3 ALICE,2015-058G,2026-07-19T20:13:47.659872,15.68116452,.00256958,64.7501,350.3405,345.4772,14.5636,0,U,40970,999,12199,.83269657E-3,.95788E-3,0
LMRST-SAT,2015-058H,2026-07-20T02:44:36.252672,14.90721767,.01342911,64.7735,173.0446,45.9503,315.2575,0,U,40971,999,11846,.17087734E-3,.1816E-4,0
SNAP-3 EDDIE,2015-058J,2026-07-19T19:21:02.160864,15.69580626,.00266918,64.7409,340.9392,347.9211,12.1296,0,U,40972,999,12413,.84604549E-3,.103668E-2,0
PROPCUBE 3,2015-058K,2026-07-20T06:27:48.475584,14.94441789,.01261836,64.7679,149.1590,47.0717,314.0900,0,U,40973,999,11974,.22189079E-3,.2626E-4,0
BISONSAT,2015-058L,2026-07-20T01:39:34.041600,15.17008188,.00825214,64.7580,67.2584,33.7919,326.8425,0,U,40974,999,12060,.35493567E-3,.7486E-4,0
SNAP-3 JIMI,2015-058M,2026-07-20T03:17:10.192992,15.02651100,.01082228,64.7643,115.4924,42.4177,318.5241,0,U,40975,999,11917,.2933415E-3,.4266E-4,0
PROPCUBE 1 (FLORA),2015-058N,2026-07-20T02:23:18.851136,14.89344001,.0132843,64.7718,193.2203,48.2267,313.0106,0,U,40976,999,12116,.15648887E-3,.1578E-4,0
SINOD-D 3,2015-058P,2026-07-20T05:44:41.410752,14.94199183,.01214646,64.7712,172.5910,45.2069,315.8844,0,U,40977,999,11969,.22814319E-3,.2655E-4,0
RAVAN,2016-067B,2026-07-19T15:24:46.047168,15.57780497,.0002829,97.9827,94.0397,196.2712,163.8452,0,U,41849,999,53274,.4531E-3,.3364E-3,0
CELTEE 1,2016-067C,2026-07-19T14:23:06.146880,15.19964565,.0002435,98.0629,69.3765,104.1559,255.9945,0,U,41850,999,53080,.12003E-3,.2504E-4,0
OPTICUBE 04,2016-067D,2026-07-20T02:03:32.902272,15.09783242,.00157914,98.0672,55.0834,12.0242,348.1359,0,U,41851,999,53013,.76650412E-4,.1169E-4,0
AEROCUBE 8D,2016-067E,2026-07-19T04:24:45.166176,15.24801432,.00043378,98.0634,72.7915,46.8473,313.3125,0,U,41852,999,53094,.15481485E-3,.3758E-4,0
AEROCUBE 8C,2016-067F,2026-07-20T02:55:51.145536,15.25062836,.00037847,98.0512,70.9874,320.9388,39.1574,0,U,41853,999,53108,.16084465E-3,.3938E-4,0
CORVUS BC2,2017-042X,2026-07-20T00:13:05.331072,15.06469708,.00129378,97.4096,1.0924,6.5029,353.6364,0,U,42846,999,49200,.10193889E-3,.1447E-4,0
CORVUS BC1,2017-042Y,2026-07-20T00:00:08.284896,15.06635489,.00111674,97.4129,1.9192,342.7923,17.2924,0,U,42847,999,49203,.13111278E-3,.1886E-4,0
MAKERSAT 0,2017-073D,2026-07-18T14:02:09.304224,15.33085965,.0105621,97.4572,82.3624,160.2361,200.3022,0,U,43016,999,47127,.27996E-3,.10616E-3,0
SIRION PATHFINDER-2,2018-099B,2026-07-20T01:56:18.057120,15.14800599,.00089975,97.4233,249.3587,174.6217,185.5114,0,U,43759,999,41760,.15057646E-3,.2733E-4,0
CORVUS BC4,2018-099K,2026-07-20T01:35:08.717568,15.12722668,.00067645,97.4049,243.0855,239.8830,120.1731,0,U,43767,999,41737,.14702488E-3,.2513E-4,0
