POLYITAN-1              
1 40042U 14033AJ  26201.06259907  .00010374  00000+0  31454-3 0  9994
2 40042  98.0936 230.4610 0007477  49.6806 310.5087 15.34324541658635
TIGRISAT                
1 40043U 14033AK  26201.19515269  .00000811  00000+0  99037-4 0  9992
2 40043  97.7872 350.4597 0048224 327.6805  32.1457 14.85257761650523
AEROCUBE 6A             
1 40045U 14033AM  26200.94905882  .00003519  00000+0  29632-3 0  9991
2 40045  97.7268   7.5592 0036108 264.4849  95.2254 14.98375370651520
AEROCUBE 6B             
1 40046U 14033AN  26200.98625792  .00002713  00000+0  22088-3 0  9998
2 40046  97.7208   7.4511 0038174 253.1889 106.5145 14.99823327651671
CANX-4                  
1 40055U 14034C   26201.11593291  .00000378  00000+0  55720-4 0  9998
2 40055  98.3076  77.6314 0011369 265.1141  94.8773 14.81315692649408
CANX-5                  
1 40056U 14034D   26201.11398130  .00000381  00000+0  56070-4 0  9997
2 40056  98.3079  77.6749 0011378 265.3825  94.6087 14.81333052640211
UKUBE-1                 
1 40074U 14037F   26200.95392120  .00004682  00000+0  26230-3 0  9996
2 40074  98.4250 207.6817 0003171  79.9998 280.1589 15.13993166653516
BRITE-PL2 (HEWELIUSZ)   
1 40119U 14049B   26201.24392014  .00000930  00000+0  91100-4 0  9995
2 40119  97.9121 313.5052 0013838   5.7697 354.3679 14.94694704646384
AEROCUBE 5C             
1 40965U 15058B   26201.29336766  .00002026  00000+0  18521-3 0  9995
2 40965  64.7653 159.5853 0132714  50.5093 310.7667 14.91597120370596
AEROCUBE 7              
1 40966U 15058C   26201.12752087  .00002825  00000+0  23041-3 0  9996
2 40966  64.7617 141.6214 0122400  48.8705 312.2896 14.95942376370885
FOX-1A (AO-85)          
1 40967U 15058D   26201.15052579  .00001891  00000+0  17611-3 0  9997
2 40967  64.7727 176.5310 0132767  43.9361 317.2215 14.91107360118481
SINOD-D 1               
1 40968U 15058E   26201.10158335  .00003154  00000+0  25486-3 0  9993
2 40968  64.7742 155.8196 0121467  40.2971 320.7067 14.96117831121581
SNAP-3 ALICE            
1 40970U 15058G   26200.84291273  .00095788  00000+0  83270-3 0  9994
2 40970  64.7501 350.3405 0025695 345.4772  14.5636 15.68116452121990
LMRST-SAT               
1 40971U 15058H   26201.11430848  .00001816  00000+0  17088-3 0  9992
2 40971  64.7735 173.0446 0134291  45.9503 315.2575 14.90721767118468
SNAP-3 EDDIE            
1 40972U 15058J   26200.80627501  .00103668  00000+0  84605-3 0  9999
2 40972  64.7409 340.9392 0026691 347.9211  12.1296 15.69580626124135
PROPCUBE 3              
1 40973U 15058K   26201.26931106  .00002626  00000+0  22189-3 0  9991
2 40973  64.7679 149.1590 0126183  47.0717 314.0900 14.94441789119740
BISONSAT                
1 40974U 15058L   26201.06914400  .00007486  00000+0  35494-3 0  9990
2 40974  64.7580  67.2584 0082521  33.7919 326.8425 15.17008188120606
SNAP-3 JIMI             
1 40975U 15058M   26201.13692353  .00004266  00000+0  29334-3 0  9998
2 40975  64.7643 115.4924 0108222  42.4177 318.5241 15.02651100119177
PROPCUBE 1 (FLORA)      
1 40976U 15058N   26201.09952374  .00001578  00000+0  15649-3 0  9993
2 40976  64.7718 193.2203 0132843  48.2267 313.0106 14.89344001121160
SINOD-D 3               
1 40977U 15058P   26201.23936818  .00002655  00000+0  22814-3 0  9994
2 40977  64.7712 172.5910 0121464  45.2069 315.8844 14.94199183119693
RAVAN                   
1 41849U 16067B   26200.64219962  .00033640  00000+0  45310-3 0  9996
2 41849  97.9827  94.0397 0002829 196.2712 163.8452 15.57780497532744
CELTEE 1                
1 41850U 16067C   26200.59937670  .00002504  00000+0  12003-3 0  9993
2 41850  98.0629  69.3765 0002435 104.1559 255.9945 15.19964565530805
OPTICUBE 04             
1 41851U 16067D   26201.08579748  .00001169  00000+0  76650-4 0  9992
2 41851  98.0672  55.0834 0015791  12.0242 348.1359 15.09783242530138
AEROCUBE 8D             
1 41852U 16067E   26200.18385609  .00003758  00000+0  15481-3 0  9994
2 41852  98.0634  72.7915 0004337  46.8473 313.3125 15.24801432530941
AEROCUBE 8C             
1 41853U 16067F   26201.12211974  .00003938  00000+0  16084-3 0  9993
2 41853  98.0512  70.9874 0003784 320.9388  39.1574 15.25062836531082
CORVUS BC2              
1 42846U 17042X   26201.00908948  .00001447  00000+0  10194-3 0  9990
2 42846  97.4096   1.0924 0012937   6.5029 353.6364 15.06469708492002
CORVUS BC1              
1 42847U 17042Y   26201.00009589  .00001886  00000+0  13111-3 0  9993
2 42847  97.4129   1.9192 0011167 342.7923  17.2924 15.06635489492037
MAKERSAT 0              
1 43016U 17073D   26199.58482991  .00010616  00000+0  27996-3 0  9994
2 43016  97.4572  82.3624 0105621 160.2361 200.3022 15.33085965471274
SIRION PATHFINDER-2     
1 43759U 18099B   26201.08076455  .00002733  00000+0  15058-3 0  9997
2 43759  97.4233 249.3587 0008997 174.6217 185.5114 15.14800599417602
CORVUS BC4              
1 43767U 18099K   26201.06607312  .00002513  00000+0  14702-3 0  9997
2 43767  97.4049 243.0855 0006764 239.8830 120.1731 15.12722668417372
